[{"OBJECT_NAME":"LING QIAO","OBJECT_ID":"2014-051A","EPOCH":"2026-03-09T23:57:46.118880","MEAN_MOTION":14.30251785,"ECCENTRICITY":0.00219198,"INCLINATION":98.707,"RA_OF_ASC_NODE":70.7191,"ARG_OF_PERICENTER":102.9977,"MEAN_ANOMALY":257.3655,"EPHEMERIS_TYPE":0,"CLASSIFICATION_TYPE":"U","NORAD_CAT_ID":40136,"ELEMENT_SET_NO":999,"REV_AT_EPOCH":60082,"BSTAR":-4.195914e-5,"MEAN_MOTION_DOT":-1.54e-6,"MEAN_MOTION_DDOT":0},{"OBJECT_NAME":"OPS 5721 (DMSP 5D-1 F1)","OBJECT_ID":"1976-091A","EPOCH":"2026-03-09T21:52:49.568448","MEAN_MOTION":14.2778969,"ECCENTRICITY":0.00172063,"INCLINATION":98.3417,"RA_OF_ASC_NODE":224.2565,"ARG_OF_PERICENTER":187.6785,"MEAN_ANOMALY":172.4136,"EPHEMERIS_TYPE":0,"CLASSIFICATION_TYPE":"U","NORAD_CAT_ID":9415,"ELEMENT_SET_NO":999,"REV_AT_EPOCH":33834,"BSTAR":0.00020482153,"MEAN_MOTION_DOT":4.65e-6,"MEAN_MOTION_DDOT":0}]
